Operating Name,PhoneNumber,Website,Active/Inactive,In-Person Load,Fee,In-Person Unload,Fee,Online Load,Fee,Online Unload,Fee,Street #,Street Name,Unit #,City,Province,Postal,Country,Telegram,Email,Monday,Tuesday,Wednesday,Thursday,Friday,Saturday,Sunday,Payment Types,Transaction Limit
string,string,string,bool,bool,uint,bool,uint,bool,uint,bool,uint,uint,string,string,string,string,string,string,string,string,string,string,string,string,string,string,string,string,uint
Simply Cash - Scarborough,(416) 291-3242,simplycash.ca,TRUE,TRUE,2,TRUE,2,TRUE,2,TRUE,2,1911,Kennedy Road,N/A,Scarborough,ON,M1P2L9,Canada,@scash1,info@simplycash.ca,9:00AM-7:00PM UTC-04:00,9:00AM-7:00PM UTC-04:00,9:00AM-7:00PM UTC-04:00,9:00AM-9:00PM UTC-04:00,9:00AM-9:00PM UTC-04:00,10:00AM-5:00PM UTC-04:00,Closed,Cash | Interact E-Transfer,3000
Simply Cash - Pickering,(905) 422-0042,simplycash.ca,TRUE,TRUE,2,TRUE,2,TRUE,2,TRUE,2,985,Brock Road,A3,Pickering,ON,L1W3A4,Canada,@scash1,info@simplycash.ca,9:30AM-4:30PM UTC-04:00,9:30AM-4:30PM UTC-04:00,9:30AM-4:30PM UTC-04:00,9:30AM-7:00PM UTC-04:00,9:30AM-7:00PM UTC-04:00,10:30AM-4:30PM UTC-04:00,Closed,Cash | Interact E-Transfer,3000
Louii B - Downtown,(647) 866 6969,dolouii.com,TRUE,TRUE,5,TRUE,5,FALSE,0,FALSE,0,279,Spadina Avenue,N/A,Toronto,ON,M5T2E3,Canada,N/A,inquiries@dolouii.com,10:30AM-6:00PM UTC-04:00,10:30AM-6:00PM UTC-04:00,10:30AM-6:00PM UTC-04:00,10:30AM-6:00PM UTC-04:00,10:30AM-6:00PM UTC-04:00,Appointment Only,Closed,Cash,1500
Louii B - Mississauga T&T,(647) 866 6969,dolouii.com,TRUE,TRUE,5,TRUE,5,FALSE,0,FALSE,0,715,Central Parkway West,,Mississauga,ON,L5B4L1,Canada,N/A,inquiries@dolouii.com,10:30AM-4:00PM UTC-04:00,10:30AM-4:00PM UTC-04:00,10:30AM-4:00PM UTC-04:00,10:30AM-4:00PM UTC-04:00,10:30AM-4:00PM UTC-04:00,Appointment Only,Closed,Cash,1500
Louii B - Richmond Hill,(647) 866 6969,dolouii.com,TRUE,TRUE,5,TRUE,5,FALSE,0,FALSE,0,330,Highway 7 East,102B,Richmond Hill,ON,L4B3P8,Canada,N/A,inquiries@dolouii.com,10:30AM-4:00PM UTC-04:00,10:30AM-4:00PM UTC-04:00,10:30AM-4:00PM UTC-04:00,10:30AM-4:00PM UTC-04:00,10:30AM-4:00PM UTC-04:00,Appointment Only,Closed,Cash,1500
Louii B - Richmond Hill,(647) 866 6969,dolouii.com,TRUE,TRUE,5,TRUE,5,FALSE,0,FALSE,0,9625,Yonge Street,N/A,Richmond Hill,ON,L4C5T2,Canada,N/A,inquiries@dolouii.com,10:30AM-4:00PM UTC-04:00,10:30AM-4:00PM UTC-04:00,10:30AM-4:00PM UTC-04:00,10:30AM-4:00PM UTC-04:00,10:30AM-4:00PM UTC-04:00,Appointment Only,Closed,Cash,1500
Louii B - Scarborough,(647) 866 6969,dolouii.com,TRUE,TRUE,5,TRUE,5,FALSE,0,FALSE,0,4779,Steeles Avenue East,Unit 6,Scarborough,ON,M1V4S7,Canada,N/A,inquiries@dolouii.com,10:30AM-4:00PM UTC-04:00,10:30AM-4:00PM UTC-04:00,10:30AM-4:00PM UTC-04:00,10:30AM-4:00PM UTC-04:00,10:30AM-4:00PM UTC-04:00,Appointment Only,Closed,Cash,1500
Louii B - Montreal,(647) 866 6969,dolouii.com,TRUE,TRUE,5,TRUE,5,FALSE,0,FALSE,0,8141,Boulevard Pie-IX,Unit 6,Montreal,QC,H1Z3T5,Canada,N/A,inquiries@dolouii.com,10:00AM-6:00PM UTC-04:00,10:00AM-6:00PM UTC-04:00,10:00AM-6:00PM UTC-04:00,10:00AM-6:00PM UTC-04:00,10:00AM-6:00PM UTC-04:00,10:00AM-6:00PM UTC-04:00,Closed,Cash,1500
M.F Converter Services,(506) 447-8169,N/A,TRUE,TRUE,2,TRUE,2,TRUE,2,TRUE,2,50,Kimble Court,N/A,Fredericton,NB,E3B5W4,Canada,N/A,mrrflwllng891@gmail.com,10:00AM-5:00PM UTC-03:00,10:00AM-5:00PM UTC-03:00,10:00AM-5:00PM UTC-03:00,10:00AM-5:00PM UTC-03:00,10:00AM-5:00PM UTC-03:00,10:00AM-5:00PM UTC-03:00,10:00AM-5:00PM UTC-03:00,Cash | Interact E-Transfer,500
Kantor - Toronto West Branch,(416) 767-7782,kantor.ca,FALSE,FALSE,0,FALSE,0,FALSE,0,FALSE,0,121,Runnymede Road,N/A,Toronto,ON,M6S2Y4,Canada,N/A,kantor@kantor.ca,10:00AM-6:00PM UTC-04:00,10:00AM-6:00PM UTC-04:00,10:00AM-6:00PM UTC-04:00,10:00AM-6:00PM UTC-04:00,10:00AM-6:00PM UTC-04:00,10:00AM-3:00PM UTC-04:00,Closed,To be determined,0
Kantor - North York Branch,(416) 855-5770,kantor.ca,FALSE,FALSE,0,FALSE,0,FALSE,0,FALSE,0,4400,Dufferin Street ,N/A,North York,ON,M3H6A8,Canada,N/A,kantor@kantor.ca,10:00AM-7:00PM UTC-04:00,10:00AM-7:00PM UTC-04:00,10:00AM-7:00PM UTC-04:00,10:00AM-7:00PM UTC-04:00,10:00AM-7:00PM UTC-04:00,10:00AM-5:00PM UTC-04:00,10:00AM-3:00PM UTC-04:00,To be determined,0
Kantor - Thornhill Branch,(905) 482-8620,kantor.ca,FALSE,FALSE,0,FALSE,0,FALSE,0,FALSE,0,390,Steeles Avenue West,Unit 18,Thornhill,ON,L4J6X2,Canada,N/A,kantor@kantor.ca,10:00AM-7:00PM UTC-04:00,10:00AM-7:00PM UTC-04:00,10:00AM-7:00PM UTC-04:00,10:00AM-7:00PM UTC-04:00,10:00AM-7:00PM UTC-04:00,10:00AM-5:00PM UTC-04:00,Closed,To be determined,0
Kantor - Mississauga Branch,(905) 369-9978,kantor.ca,FALSE,FALSE,0,FALSE,0,FALSE,0,FALSE,0,3643,Dixie Road,Unit 1,Mississauga,ON,L4Y2B3,Canada,N/A,kantor@kantor.ca,10:00AM-7:00PM UTC-04:00,10:00AM-7:00PM UTC-04:00,10:00AM-7:00PM UTC-04:00,10:00AM-7:00PM UTC-04:00,10:00AM-7:00PM UTC-04:00,10:00AM-5:00PM UTC-04:00,10:00AM-3:00PM UTC-04:00,To be determined,0
Kantor - Hamilton Branch,(905) 661-1111,kantor.ca,FALSE,FALSE,0,FALSE,0,FALSE,0,FALSE,0,685,Queenston Road,N/A,Hamilton,ON,L8G1A1,Canada,N/A,kantor@kantor.ca,10:00AM-7:00PM UTC-04:00,10:00AM-7:00PM UTC-04:00,10:00AM-7:00PM UTC-04:00,10:00AM-7:00PM UTC-04:00,10:00AM-7:00PM UTC-04:00,10:00AM-5:00PM UTC-04:00,10:00AM-3:00PM UTC-04:00,To be determined,0
Ultimate Currency Exchange - Ottawa West,(613) 596-5505,uexchange.ca,FALSE,FALSE,0,FALSE,0,FALSE,0,FALSE,0,2573,Carling Avenue,N/A,Ottawa,ON,K2B7H7,Canada,N/A,enquiry@uexchange.ca,9:30AM-5:30PM UTC-04:00,9:30AM-5:30PM UTC-04:00,9:30AM-5:30PM UTC-04:00,9:30AM-5:30PM UTC-04:00,9:30AM-5:30PM UTC-04:00,9:30AM-5:30PM UTC-04:00,Closed,To be determined,0
Ultimate Currency Exchange - Ottawa East,(613) 842-3334,uexchange.ca,FALSE,FALSE,0,FALSE,0,FALSE,0,FALSE,0,1980,Ogilvie Road,Unit 109,Ottawa,ON,K1J9L3,Canada,N/A,enquiry@uexchange.ca,10:00AM-5:30PM UTC-04:00,10:00AM-5:30PM UTC-04:00,10:00AM-5:30PM UTC-04:00,10:00AM-5:30PM UTC-04:00,10:00AM-5:30PM UTC-04:00,Closed,Closed,To be determined,0
Ultimate Currency Exchange - Ottawa Downtown,(613) 232-1472,uexchange.ca,FALSE,FALSE,0,FALSE,0,FALSE,0,FALSE,0,240,Sparks Shopping Centre - Atrium,C1,Ottawa,ON,K1P6C9,Canada,N/A,enquiry@uexchange.ca,9:30AM-5:30PM UTC-04:00,9:30AM-5:30PM UTC-04:00,9:30AM-5:30PM UTC-04:00,9:30AM-5:30PM UTC-04:00,9:30AM-5:30PM UTC-04:00,Closed,Closed,To be determined,0
Ultimate Currency Exchange - Toronto,(416) 440-1472,uexchange.ca,FALSE,FALSE,0,FALSE,0,FALSE,0,FALSE,0,2502,Yonge Street,N/A,Toronto,ON,M4P2H7,Canada,N/A,enquiry@uexchange.ca,10:00AM-6:00PM UTC-04:00,10:00AM-6:00PM UTC-04:00,10:00AM-6:00PM UTC-04:00,10:00AM-6:00PM UTC-04:00,10:00AM-6:00PM UTC-04:00,10:00AM-6:00PM UTC-04:00,Closed,To be determined,0
Interchange Financial - Toronto Downtown,1-888-972-7799,interchangefinancial.com,FALSE,FALSE,0,FALSE,0,FALSE,0,FALSE,0,20,Dundas Street West,N/A,Toronto,ON,M5G2C2,Canada,N/A,info@interchangefinancial.com,10:00AM-7:00PM UTC-04:00,10:00AM-7:00PM UTC-04:00,10:00AM-7:00PM UTC-04:00,9:00AM-8:00PM UTC-04:00,9:00AM-8:00PM UTC-04:00,10:00AM-6:00PM UTC-04:00,Closed,To be determined,0
Interchange Financial - Toronto Downtown,1-888-972-7799,interchangefinancial.com,FALSE,FALSE,0,FALSE,0,FALSE,0,FALSE,0,1,Yonge Street,Suite 109,Toronto,ON,M5E1E5,Canada,N/A,info@interchangefinancial.com,10:00AM-5:00PM UTC-04:00,10:00AM-5:00PM UTC-04:00,10:00AM-5:00PM UTC-04:00,10:00AM-5:00PM UTC-04:00,10:00AM-5:00PM UTC-04:00,Closed,Closed,To be determined,0
Interchange Financial - Toronto North York,1-888-972-7799,interchangefinancial.com,FALSE,FALSE,0,FALSE,0,FALSE,0,FALSE,0,5617,Yonge Street,N/A,Toronto,ON,M2M3S9,Canada,N/A,info@interchangefinancial.com,9:00AM-9:00PM UTC-04:00,9:00AM-9:00PM UTC-04:00,9:00AM-9:00PM UTC-04:00,9:00AM-9:00PM UTC-04:00,9:00AM-9:00PM UTC-04:00,10:00AM-7:00PM UTC-04:00,10:00AM-6:00PM UTC-04:00,To be determined,0
Interchange Financial - Markham,1-888-972-7799,interchangefinancial.com,FALSE,FALSE,0,FALSE,0,FALSE,0,FALSE,0,3621,Highway 7,Unit 101,Markham,ON,L3R0G6,Canada,N/A,info@interchangefinancial.com,9:00AM-7:00PM UTC-04:00,9:00AM-7:00PM UTC-04:00,9:00AM-7:00PM UTC-04:00,9:00AM-7:00PM UTC-04:00,9:00AM-7:00PM UTC-04:00,10:00AM-6:00PM UTC-04:00,Closed,To be determined,0
Interchange Financial - Brampton,1-888-972-7799,interchangefinancial.com,FALSE,FALSE,0,FALSE,0,FALSE,0,FALSE,0,10545,Bramalea Road,N/A,Brampton,ON,L6R3P4,Canada,N/A,info@interchangefinancial.com,9:00AM-7:00PM UTC-04:00,9:00AM-7:00PM UTC-04:00,9:00AM-7:00PM UTC-04:00,9:00AM-7:00PM UTC-04:00,9:00AM-7:00PM UTC-04:00,10:00AM-6:00PM UTC-04:00,Closed,To be determined,0
Venue Financial - Penticton,(250) 493-7999,venuefinancial.com,FALSE,FALSE,0,FALSE,0,FALSE,0,FALSE,0,368,Main Street,N/A,Penticton,BC,V2A5C3,Canada,N/A,penticton@venuefinancial.com,9:00AM-6:00PM UTC-07:00,9:00AM-6:00PM UTC-07:00,9:00AM-6:00PM UTC-07:00,9:00AM-6:00PM UTC-07:00,9:00AM-7:00PM UTC-07:00,10:00AM-4:00PM UTC-07:00,Closed,To be determined,0
Venue Financial - Salmon Arm,(250) 832-2222,venuefinancial.com,FALSE,FALSE,0,FALSE,0,FALSE,0,FALSE,0,350,Ross Street NE,Unit B,Salmon Arm,BC,V1E4P3,Canada,N/A,salmonarm@venuefinancial.com,9:00AM-6:00PM UTC-07:00,9:00AM-6:00PM UTC-07:00,9:00AM-6:00PM UTC-07:00,9:00AM-6:00PM UTC-07:00,9:00AM-7:00PM UTC-07:00,10:00AM-4:00PM UTC-07:00,Closed,To be determined,0
Venue Financial - Prince George,(250) 649-0808,venuefinancial.com,FALSE,FALSE,0,FALSE,0,FALSE,0,FALSE,0,805,Victoria Street,N/A,Prince George,BC,V2L2K7,Canada,N/A,princegeorge@venuefinancial.com,9:00AM-6:00PM UTC-07:00,9:00AM-6:00PM UTC-07:00,9:00AM-6:00PM UTC-07:00,9:00AM-6:00PM UTC-07:00,9:00AM-7:00PM UTC-07:00,10:00AM-4:00PM UTC-07:00,Closed,To be determined,0
Venue Financial - Nanaimo,(250) 754-0123,venuefinancial.com,FALSE,FALSE,0,FALSE,0,FALSE,0,FALSE,0,1708,Bowen Road,Unit 4,Nanaimo,BC,V9R1G5,Canada,N/A,nanaimo@venuefinancial.com,9:00AM-6:00PM UTC-07:00,9:00AM-6:00PM UTC-07:00,9:00AM-6:00PM UTC-07:00,9:00AM-6:00PM UTC-07:00,9:00AM-7:00PM UTC-07:00,10:00AM-4:00PM UTC-07:00,Closed,To be determined,0
Venue Financial - Vernon,(250) 503-1010,venuefinancial.com,FALSE,FALSE,0,FALSE,0,FALSE,0,FALSE,0,2601,Highway 6 (Park Place),Unit 6,Nanaimo,BC,V1T5G4,Canada,N/A,vernon@venuefinancial.com,9:00AM-6:00PM UTC-07:00,9:00AM-6:00PM UTC-07:00,9:00AM-6:00PM UTC-07:00,9:00AM-6:00PM UTC-07:00,9:00AM-7:00PM UTC-07:00,10:00AM-4:00PM UTC-07:00,Closed,To be determined,0
Venue Financial - Quesnel,(250) 984-7666,venuefinancial.com,FALSE,FALSE,0,FALSE,0,FALSE,0,FALSE,0,324,Reid Street,N/A,Quesnel,BC,V2J2M4,Canada,N/A,quesnel@venuefinancial.com,9:00AM-6:00PM UTC-07:00,9:00AM-6:00PM UTC-07:00,9:00AM-6:00PM UTC-07:00,9:00AM-6:00PM UTC-07:00,9:00AM-7:00PM UTC-07:00,10:00AM-4:00PM UTC-07:00,Closed,To be determined,0
Venue Financial - Victoria,(250) 382-2111,venuefinancial.com,FALSE,FALSE,0,FALSE,0,FALSE,0,FALSE,0,890,Esquimalt Road (Place Valentine Plaza),Unit D,Victoria,BC,V9A3M4,Canada,N/A,victoria@venuefinancial.com,9:00AM-6:00PM UTC-07:00,9:00AM-6:00PM UTC-07:00,9:00AM-6:00PM UTC-07:00,9:00AM-6:00PM UTC-07:00,9:00AM-7:00PM UTC-07:00,10:00AM-4:00PM UTC-07:00,Closed,To be determined,0
Venue Financial - Port Alberni,(778) 421-4343,venuefinancial.com,FALSE,FALSE,0,FALSE,0,FALSE,0,FALSE,0,4805,Johnston Road,N/A,Port Alberni,BC,V9Y5M2,Canada,N/A,portalberni@venuefinancial.com,9:00AM-6:00PM UTC-07:00,9:00AM-6:00PM UTC-07:00,9:00AM-6:00PM UTC-07:00,9:00AM-6:00PM UTC-07:00,9:00AM-7:00PM UTC-07:00,10:00AM-4:00PM UTC-07:00,Closed,To be determined,0
Venue Financial - Kelowna,(250) 869-1499,venuefinancial.com,FALSE,FALSE,0,FALSE,0,FALSE,0,FALSE,0,1756,Springfield Road,N/A,Kelowna,BC,V1Y5V6,Canada,N/A,portalberni@venuefinancial.com,9:00AM-6:00PM UTC-07:00,9:00AM-6:00PM UTC-07:00,9:00AM-6:00PM UTC-07:00,9:00AM-6:00PM UTC-07:00,9:00AM-7:00PM UTC-07:00,10:00AM-4:00PM UTC-07:00,Closed,To be determined,0
Venue Financial - Williams Lake,(250) 305-2274,venuefinancial.com,FALSE,FALSE,0,FALSE,0,FALSE,0,FALSE,0,112,North 2nd Avenue,Unit C,Williams Lake,BC,V2G1Z6,Canada,N/A,williamslake@venuefinancial.com,9:00AM-6:00PM UTC-07:00,9:00AM-6:00PM UTC-07:00,9:00AM-6:00PM UTC-07:00,9:00AM-6:00PM UTC-07:00,9:00AM-7:00PM UTC-07:00,10:00AM-4:00PM UTC-07:00,Closed,To be determined,0
Venue Financial - Fort St. John,(250) 787-8811,venuefinancial.com,FALSE,FALSE,0,FALSE,0,FALSE,0,FALSE,0,9317,96th Street,Unit 106,Fort St. John,BC,V1J6V5,Canada,N/A,fortstjohn@venuefinancial.com,9:00AM-6:00PM UTC-07:00,9:00AM-6:00PM UTC-07:00,9:00AM-6:00PM UTC-07:00,9:00AM-6:00PM UTC-07:00,9:00AM-7:00PM UTC-07:00,10:00AM-4:00PM UTC-07:00,Closed,To be determined,0
Venue Financial - Campbell River,(250) 914-2777,venuefinancial.com,FALSE,FALSE,0,FALSE,0,FALSE,0,FALSE,0,1070,Shoppers Row,N/A,Campbell River,BC,V9W2C6,Canada,N/A,campbellriver@venuefinancial.com,9:00AM-6:00PM UTC-07:00,9:00AM-6:00PM UTC-07:00,9:00AM-6:00PM UTC-07:00,9:00AM-6:00PM UTC-07:00,9:00AM-7:00PM UTC-07:00,10:00AM-4:00PM UTC-07:00,Closed,To be determined,0
Cash 4 You,(905) 426-6032,cash4you.ca,FALSE,FALSE,0,FALSE,0,FALSE,0,FALSE,0,85,Kingston Road East,Unit 10,Ajax,ON,L1S7J4,Canada,N/A,info@cash4you.ca,9:00AM-9:00PM UTC-04:00,9:00AM-9:00PM UTC-04:00,9:00AM-9:00PM UTC-04:00,9:00AM-9:00PM UTC-04:00,9:00AM-9:00PM UTC-04:00,9:00AM-5:00PM UTC-04:00,10:00AM-5:00PM UTC-04:00,To be determined,0
Cash 4 You,(613) 969-0990,cash4you.ca,FALSE,FALSE,0,FALSE,0,FALSE,0,FALSE,0,346,North Front Street,N/A,Belleville,ON,K8P3C7,Canada,N/A,info@cash4you.ca,9:00AM-9:00PM UTC-04:00,9:00AM-9:00PM UTC-04:00,9:00AM-9:00PM UTC-04:00,9:00AM-9:00PM UTC-04:00,9:00AM-9:00PM UTC-04:00,9:00AM-5:00PM UTC-04:00,10:00AM-5:00PM UTC-04:00,To be determined,0
Cash 4 You,(519) 750-1600,cash4you.ca,FALSE,FALSE,0,FALSE,0,FALSE,0,FALSE,0,63,Brant Avenue,Unit C,Brantford,ON,N3T3H2,Canada,N/A,info@cash4you.ca,9:00AM-9:00PM UTC-04:00,9:00AM-9:00PM UTC-04:00,9:00AM-9:00PM UTC-04:00,9:00AM-9:00PM UTC-04:00,9:00AM-9:00PM UTC-04:00,9:00AM-5:00PM UTC-04:00,10:00AM-5:00PM UTC-04:00,To be determined,0
Cash 4 You,(519) 751-3300,cash4you.ca,FALSE,FALSE,0,FALSE,0,FALSE,0,FALSE,0,212,King George Road,N/A,Brantford,ON,N3R5L4,Canada,N/A,info@cash4you.ca,9:00AM-9:00PM UTC-04:00,9:00AM-9:00PM UTC-04:00,9:00AM-9:00PM UTC-04:00,9:00AM-9:00PM UTC-04:00,9:00AM-9:00PM UTC-04:00,9:00AM-5:00PM UTC-04:00,Closed,To be determined,0
Cash 4 You,(519) 620-1900,cash4you.ca,FALSE,FALSE,0,FALSE,0,FALSE,0,FALSE,0,250,Dundas Street South,Unit 10,Cambridge,ON,N1R8A8,Canada,N/A,info@cash4you.ca,9:00AM-9:00PM UTC-04:00,9:00AM-9:00PM UTC-04:00,9:00AM-9:00PM UTC-04:00,9:00AM-9:00PM UTC-04:00,9:00AM-9:00PM UTC-04:00,10:00AM-5:00PM UTC-04:00,Closed,To be determined,0
Cash 4 You,(519) 740-2274,cash4you.ca,FALSE,FALSE,0,FALSE,0,FALSE,0,FALSE,0,560,Hespeler Road,Unit 2,Cambridge,ON,N1R6J6,Canada,N/A,info@cash4you.ca,9:00AM-9:00PM UTC-04:00,9:00AM-9:00PM UTC-04:00,9:00AM-9:00PM UTC-04:00,9:00AM-9:00PM UTC-04:00,9:00AM-9:00PM UTC-04:00,10:00AM-5:00PM UTC-04:00,Closed,To be determined,0
Cash 4 You,(416) 749-3600,cash4you.ca,FALSE,FALSE,0,FALSE,0,FALSE,0,FALSE,0,2291,Kipling Avenue,Unit 101,Etobicoke,ON,M9W4L6,Canada,N/A,info@cash4you.ca,9:00AM-9:00PM UTC-04:00,9:00AM-9:00PM UTC-04:00,9:00AM-9:00PM UTC-04:00,9:00AM-9:00PM UTC-04:00,9:00AM-9:00PM UTC-04:00,10:00AM-5:00PM UTC-04:00,Closed,To be determined,0
Cash 4 You,(519) 821-5551,cash4you.ca,FALSE,FALSE,0,FALSE,0,FALSE,0,FALSE,0,360,Speedvale Avenue East,Unit 11,Guelph,ON,N1E1N5,Canada,N/A,info@cash4you.ca,9:00AM-9:00PM UTC-04:00,9:00AM-9:00PM UTC-04:00,9:00AM-9:00PM UTC-04:00,9:00AM-9:00PM UTC-04:00,9:00AM-9:00PM UTC-04:00,10:00AM-5:00PM UTC-04:00,Closed,To be determined,0
Cash 4 You,(613) 389-0777,cash4you.ca,FALSE,FALSE,0,FALSE,0,FALSE,0,FALSE,0,1677,Bath Road,Unit A,Kingston,ON,K7M4X2,Canada,N/A,info@cash4you.ca,9:00AM-9:00PM UTC-04:00,9:00AM-9:00PM UTC-04:00,9:00AM-9:00PM UTC-04:00,9:00AM-9:00PM UTC-04:00,9:00AM-9:00PM UTC-04:00,9:00AM-5:00PM UTC-04:00,Closed,To be determined,0
Cash 4 You,(613) 546-4019,cash4you.ca,FALSE,FALSE,0,FALSE,0,FALSE,0,FALSE,0,185,Division Street,N/A,Kingston,ON,K7K3Y9,Canada,N/A,info@cash4you.ca,9:00AM-9:00PM UTC-04:00,9:00AM-9:00PM UTC-04:00,9:00AM-9:00PM UTC-04:00,9:00AM-9:00PM UTC-04:00,9:00AM-9:00PM UTC-04:00,9:00AM-5:00PM UTC-04:00,Closed,To be determined,0
Cash 4 You,(519) 690-1300,cash4you.ca,FALSE,FALSE,0,FALSE,0,FALSE,0,FALSE,0,387,Wellington Road,Unit 18A,London,ON,N6C2P9,Canada,N/A,info@cash4you.ca,9:00AM-9:00PM UTC-04:00,9:00AM-9:00PM UTC-04:00,9:00AM-9:00PM UTC-04:00,9:00AM-9:00PM UTC-04:00,9:00AM-9:00PM UTC-04:00,9:00AM-5:00PM UTC-04:00,10:00AM-5:00PM UTC-04:00,To be determined,0
Cash 4 You,(519) 457-2274,cash4you.ca,FALSE,FALSE,0,FALSE,0,FALSE,0,FALSE,0,1332,Huron Street,Unit 2,London,ON,N5V2E2,Canada,N/A,info@cash4you.ca,9:00AM-9:00PM UTC-04:00,9:00AM-9:00PM UTC-04:00,9:00AM-9:00PM UTC-04:00,9:00AM-9:00PM UTC-04:00,9:00AM-9:00PM UTC-04:00,9:00AM-5:00PM UTC-04:00,10:00AM-5:00PM UTC-04:00,To be determined,0
Cash 4 You,(519) 434-2274,cash4you.ca,FALSE,FALSE,0,FALSE,0,FALSE,0,FALSE,0,602,Dundas Street East,Unit 2,London,ON,N6B1W8,Canada,N/A,info@cash4you.ca,9:00AM-9:00PM UTC-04:00,9:00AM-9:00PM UTC-04:00,9:00AM-9:00PM UTC-04:00,9:00AM-9:00PM UTC-04:00,9:00AM-9:00PM UTC-04:00,9:00AM-5:00PM UTC-04:00,Closed,To be determined,0
Cash 4 You,(519) 434-5004,cash4you.ca,FALSE,FALSE,0,FALSE,0,FALSE,0,FALSE,0,169,Wharncliffe Road South,N/A,London,ON,N6J2K7,Canada,N/A,info@cash4you.ca,9:00AM-9:00PM UTC-04:00,9:00AM-9:00PM UTC-04:00,9:00AM-9:00PM UTC-04:00,9:00AM-9:00PM UTC-04:00,9:00AM-9:00PM UTC-04:00,9:00AM-5:00PM UTC-04:00,Closed,To be determined,0
Cash 4 You,(519) 457-3000,cash4you.ca,FALSE,FALSE,0,FALSE,0,FALSE,0,FALSE,0,1630,Dundas Street,N/A,London,ON,N5W3C4,Canada,N/A,info@cash4you.ca,9:00AM-9:00PM UTC-04:00,9:00AM-9:00PM UTC-04:00,9:00AM-9:00PM UTC-04:00,9:00AM-9:00PM UTC-04:00,9:00AM-9:00PM UTC-04:00,9:00AM-5:00PM UTC-04:00,Closed,To be determined,0
Cash 4 You,(905) 279-8800,cash4you.ca,FALSE,FALSE,0,FALSE,0,FALSE,0,FALSE,0,2515,Hurontario Street,Unit 105,Mississauga,ON,L5A4C8,Canada,N/A,info@cash4you.ca,7:00AM-11:00PM UTC-04:00,7:00AM-11:00PM UTC-04:00,7:00AM-11:00PM UTC-04:00,7:00AM-11:00PM UTC-04:00,7:00AM-11:00PM UTC-04:00,9:00AM-9:00PM UTC-04:00,9:00AM-9:00PM UTC-04:00,To be determined,0
Cash 4 You,(905) 281-1100,cash4you.ca,FALSE,FALSE,0,FALSE,0,FALSE,0,FALSE,0,3100,Dixie Road,Unit 2,Mississauga,ON,L4Y2A6,Canada,N/A,info@cash4you.ca,9:00AM-9:00PM UTC-04:00,9:00AM-9:00PM UTC-04:00,9:00AM-9:00PM UTC-04:00,9:00AM-9:00PM UTC-04:00,9:00AM-9:00PM UTC-04:00,9:00AM-5:00PM UTC-04:00,10:00AM-5:00PM UTC-04:00,To be determined,0
Cash 4 You,(905) 270-8900,cash4you.ca,FALSE,FALSE,0,FALSE,0,FALSE,0,FALSE,0,93,Dundas Street East,Unit 3,Mississauga,ON,L5A1W7,Canada,N/A,info@cash4you.ca,9:00AM-9:00PM UTC-04:00,9:00AM-9:00PM UTC-04:00,9:00AM-9:00PM UTC-04:00,9:00AM-9:00PM UTC-04:00,9:00AM-9:00PM UTC-04:00,9:00AM-5:00PM UTC-04:00,Closed,To be determined,0
Cash 4 You,(905) 212-9577,cash4you.ca,FALSE,FALSE,0,FALSE,0,FALSE,0,FALSE,0,3647,Dixie Road,Unit A,Mississauga,ON,L4Y2B3,Canada,N/A,info@cash4you.ca,9:00AM-9:00PM UTC-04:00,9:00AM-9:00PM UTC-04:00,9:00AM-9:00PM UTC-04:00,9:00AM-9:00PM UTC-04:00,9:00AM-9:00PM UTC-04:00,9:00AM-5:00PM UTC-04:00,Closed,To be determined,0
Cash 4 You,(705) 474-1500,cash4you.ca,FALSE,FALSE,0,FALSE,0,FALSE,0,FALSE,0,45,Lakeshore Drive,N/A,North Bay,ON,P1A2A1,Canada,N/A,info@cash4you.ca,9:00AM-9:00PM UTC-04:00,9:00AM-9:00PM UTC-04:00,9:00AM-9:00PM UTC-04:00,9:00AM-9:00PM UTC-04:00,9:00AM-9:00PM UTC-04:00,9:00AM-5:00PM UTC-04:00,Closed,To be determined,0
Cash 4 You,(705) 474-8000,cash4you.ca,FALSE,FALSE,0,FALSE,0,FALSE,0,FALSE,0,2012,Cassells Street,N/A,North Bay,ON,P1B4E2,Canada,N/A,info@cash4you.ca,9:00AM-9:00PM UTC-04:00,9:00AM-9:00PM UTC-04:00,9:00AM-9:00PM UTC-04:00,9:00AM-9:00PM UTC-04:00,9:00AM-9:00PM UTC-04:00,9:00AM-5:00PM UTC-04:00,10:00AM-5:00PM UTC-04:00,To be determined,0
Cash 4 You,(519) 941-0300,cash4you.ca,FALSE,FALSE,0,FALSE,0,FALSE,0,FALSE,0,210,Broadway,Unit 101,Orangeville,ON,L9W5G4,Canada,N/A,info@cash4you.ca,9:00AM-9:00PM UTC-04:00,9:00AM-9:00PM UTC-04:00,9:00AM-9:00PM UTC-04:00,9:00AM-9:00PM UTC-04:00,9:00AM-9:00PM UTC-04:00,9:00AM-5:00PM UTC-04:00,Closed,To be determined,0
Cash 4 You,(905) 436-8000,cash4you.ca,FALSE,FALSE,0,FALSE,0,FALSE,0,FALSE,0,64,Simcoe Street North,N/A,Oshawa,ON,L1G4S2,Canada,N/A,info@cash4you.ca,9:00AM-9:00PM UTC-04:00,9:00AM-9:00PM UTC-04:00,9:00AM-9:00PM UTC-04:00,9:00AM-9:00PM UTC-04:00,9:00AM-9:00PM UTC-04:00,9:00AM-5:00PM UTC-04:00,10:00AM-5:00PM UTC-04:00,To be determined,0
Cash 4 You,(905) 436-2999,cash4you.ca,FALSE,FALSE,0,FALSE,0,FALSE,0,FALSE,0,1208,Simcoe Street North,N/A,Oshawa,ON,L1G4W9,Canada,N/A,info@cash4you.ca,9:00AM-9:00PM UTC-04:00,9:00AM-9:00PM UTC-04:00,9:00AM-9:00PM UTC-04:00,9:00AM-9:00PM UTC-04:00,9:00AM-9:00PM UTC-04:00,9:00AM-5:00PM UTC-04:00,10:00AM-5:00PM UTC-04:00,To be determined,0
Cash 4 You,(905) 728-9819,cash4you.ca,FALSE,FALSE,0,FALSE,0,FALSE,0,FALSE,0,333,King Street West,Unit B,Oshawa,ON,L1J2J8,Canada,N/A,info@cash4you.ca,9:00AM-9:00PM UTC-04:00,9:00AM-9:00PM UTC-04:00,9:00AM-9:00PM UTC-04:00,9:00AM-9:00PM UTC-04:00,9:00AM-9:00PM UTC-04:00,9:00AM-5:00PM UTC-04:00,Closed,To be determined,0
Cash 4 You,(613) 735-5151,cash4you.ca,FALSE,FALSE,0,FALSE,0,FALSE,0,FALSE,0,779,Pembroke Street East,N/A,Pembroke,ON,K8A3L8,Canada,N/A,info@cash4you.ca,9:00AM-9:00PM UTC-04:00,9:00AM-9:00PM UTC-04:00,9:00AM-9:00PM UTC-04:00,9:00AM-9:00PM UTC-04:00,9:00AM-9:00PM UTC-04:00,9:00AM-5:00PM UTC-04:00,Closed,To be determined,0
Cash 4 You,(519) 337-4884,cash4you.ca,FALSE,FALSE,0,FALSE,0,FALSE,0,FALSE,0,1273,London Road,Unit 2,Sarnia,ON,N7S1P3,Canada,N/A,info@cash4you.ca,9:00AM-9:00PM UTC-04:00,9:00AM-9:00PM UTC-04:00,9:00AM-9:00PM UTC-04:00,9:00AM-9:00PM UTC-04:00,9:00AM-9:00PM UTC-04:00,9:00AM-5:00PM UTC-04:00,9:00AM-5:00PM UTC-04:00,To be determined,0
Cash 4 You,(905) 688-2274,cash4you.ca,FALSE,FALSE,0,FALSE,0,FALSE,0,FALSE,0,333,Ontario Street,Unit 7,St. Catherines,ON,L2R5L8,Canada,N/A,info@cash4you.ca,9:00AM-9:00PM UTC-04:00,9:00AM-9:00PM UTC-04:00,9:00AM-9:00PM UTC-04:00,9:00AM-9:00PM UTC-04:00,9:00AM-9:00PM UTC-04:00,9:00AM-5:00PM UTC-04:00,10:00AM-5:00PM UTC-04:00,To be determined,0
Cash 4 You,(905) 682-1700,cash4you.ca,FALSE,FALSE,0,FALSE,0,FALSE,0,FALSE,0,120,Welland Avenue,Unit 14,St. Catherines,ON,L2R2N3,Canada,N/A,info@cash4you.ca,9:00AM-9:00PM UTC-04:00,9:00AM-9:00PM UTC-04:00,9:00AM-9:00PM UTC-04:00,9:00AM-9:00PM UTC-04:00,9:00AM-9:00PM UTC-04:00,9:00AM-5:00PM UTC-04:00,10:00AM-5:00PM UTC-04:00,To be determined,0
Cash 4 You,(705) 670-1100,cash4you.ca,FALSE,FALSE,0,FALSE,0,FALSE,0,FALSE,0,49,Durham Street,N/A,Sudbury,ON,P3E3M2,Canada,N/A,info@cash4you.ca,9:00AM-9:00PM UTC-04:00,9:00AM-9:00PM UTC-04:00,9:00AM-9:00PM UTC-04:00,9:00AM-9:00PM UTC-04:00,9:00AM-9:00PM UTC-04:00,9:00AM-5:00PM UTC-04:00,10:00AM-5:00PM UTC-04:00,To be determined,0
Cash 4 You,(416) 699-6666,cash4you.ca,FALSE,FALSE,0,FALSE,0,FALSE,0,FALSE,0,2763,Danforth Avenue,N/A,Toronto,ON,M4C1L8,Canada,N/A,info@cash4you.ca,11:00AM-7:00PM UTC-04:00,11:00AM-7:00PM UTC-04:00,11:00AM-7:00PM UTC-04:00,11:00AM-7:00PM UTC-04:00,11:00AM-7:00PM UTC-04:00,9:00AM-5:00PM UTC-04:00,Closed,To be determined,0
Cash 4 You,(416) 462-1900,cash4you.ca,FALSE,FALSE,0,FALSE,0,FALSE,0,FALSE,0,1000,Gerrard Street East,Unit C18,Toronto,ON,M2M3G6,Canada,N/A,info@cash4you.ca,9:00AM-9:00PM UTC-04:00,9:00AM-9:00PM UTC-04:00,9:00AM-9:00PM UTC-04:00,9:00AM-9:00PM UTC-04:00,9:00AM-9:00PM UTC-04:00,9:00AM-5:00PM UTC-04:00,10:00AM-5:00PM UTC-04:00,To be determined,0
Cash 4 You,(416) 762-4300,cash4you.ca,FALSE,FALSE,0,FALSE,0,FALSE,0,FALSE,0,2561,St. Clair Avenue West,Unit B3,Toronto,ON,M6N4Z5,Canada,N/A,info@cash4you.ca,9:00AM-9:00PM UTC-04:00,9:00AM-9:00PM UTC-04:00,9:00AM-9:00PM UTC-04:00,9:00AM-9:00PM UTC-04:00,9:00AM-9:00PM UTC-04:00,9:00AM-5:00PM UTC-04:00,10:00AM-5:00PM UTC-04:00,To be determined,0
Cash 4 You,(416) 439-3535,cash4you.ca,FALSE,FALSE,0,FALSE,0,FALSE,0,FALSE,0,1901,Ellesmere Road,Unit A,Toronto,ON,M1J2W5,Canada,N/A,info@cash4you.ca,9:00AM-9:00PM UTC-04:00,9:00AM-9:00PM UTC-04:00,9:00AM-9:00PM UTC-04:00,9:00AM-9:00PM UTC-04:00,9:00AM-9:00PM UTC-04:00,9:00AM-5:00PM UTC-04:00,10:00AM-5:00PM UTC-04:00,To be determined,0
Cash 4 You,(416) 222-9666,cash4you.ca,FALSE,FALSE,0,FALSE,0,FALSE,0,FALSE,0,4578,Yonge Street,Unit 1,Toronto,ON,M2N5L7,Canada,N/A,info@cash4you.ca,9:00AM-9:00PM UTC-04:00,9:00AM-9:00PM UTC-04:00,9:00AM-9:00PM UTC-04:00,9:00AM-9:00PM UTC-04:00,9:00AM-9:00PM UTC-04:00,9:00AM-5:00PM UTC-04:00,Closed,To be determined,0
Cash 4 You,(416) 972-9601,cash4you.ca,FALSE,FALSE,0,FALSE,0,FALSE,0,FALSE,0,529,Yonge Street,N/A,Toronto,ON,M4Y1Y5,Canada,N/A,info@cash4you.ca,9:00AM-9:00PM UTC-04:00,9:00AM-9:00PM UTC-04:00,9:00AM-9:00PM UTC-04:00,9:00AM-9:00PM UTC-04:00,9:00AM-9:00PM UTC-04:00,9:00AM-5:00PM UTC-04:00,9:00AM-5:00PM UTC-04:00,To be determined,0
Cash 4 You,(416) 783-7970,cash4you.ca,FALSE,FALSE,0,FALSE,0,FALSE,0,FALSE,0,1706,Eglinton Avenue West,N/A,Toronto,ON,M6E2H5,Canada,N/A,info@cash4you.ca,9:00AM-9:00PM UTC-04:00,9:00AM-9:00PM UTC-04:00,9:00AM-9:00PM UTC-04:00,9:00AM-9:00PM UTC-04:00,9:00AM-9:00PM UTC-04:00,9:00AM-5:00PM UTC-04:00,9:00AM-5:00PM UTC-04:00,To be determined,0
Cash 4 You,(416) 778-4500,cash4you.ca,FALSE,FALSE,0,FALSE,0,FALSE,0,FALSE,0,1325,Danforth Avenue,N/A,Toronto,ON,M1R2Z5,Canada,N/A,info@cash4you.ca,9:00AM-9:00PM UTC-04:00,9:00AM-9:00PM UTC-04:00,9:00AM-9:00PM UTC-04:00,9:00AM-9:00PM UTC-04:00,9:00AM-9:00PM UTC-04:00,9:00AM-5:00PM UTC-04:00,Closed,To be determined,0
Cash 4 You,(905) 433-4700,cash4you.ca,FALSE,FALSE,0,FALSE,0,FALSE,0,FALSE,0,1801,Dundas Street East,Unit 18,Whitby,ON,L1N9G3,Canada,N/A,info@cash4you.ca,9:00AM-9:00PM UTC-04:00,9:00AM-9:00PM UTC-04:00,9:00AM-9:00PM UTC-04:00,9:00AM-9:00PM UTC-04:00,9:00AM-9:00PM UTC-04:00,9:00AM-5:00PM UTC-04:00,10:00AM-5:00PM UTC-04:00,To be determined,0
Cash 4 You,(905) 713-6000,cash4you.ca,FALSE,FALSE,0,FALSE,0,FALSE,0,FALSE,0,15531,Yonge Street,Unit 3 & 4,Aurora,ON,L4G1P3,Canada,N/A,info@cash4you.ca,9:00AM-9:00PM UTC-04:00,9:00AM-9:00PM UTC-04:00,9:00AM-9:00PM UTC-04:00,9:00AM-9:00PM UTC-04:00,9:00AM-9:00PM UTC-04:00,9:00AM-5:00PM UTC-04:00,Closed,To be determined,0
Cash 4 You,(905) 623-7581,cash4you.ca,FALSE,FALSE,0,FALSE,0,FALSE,0,FALSE,0,258,King Street East,N/A,Bowmanville,ON,L1C0N3,Canada,N/A,info@cash4you.ca,9:00AM-9:00PM UTC-04:00,9:00AM-9:00PM UTC-04:00,9:00AM-9:00PM UTC-04:00,9:00AM-9:00PM UTC-04:00,9:00AM-9:00PM UTC-04:00,9:00AM-5:00PM UTC-04:00,Closed,To be determined,0
Cash 4 You,(613) 345-5995,cash4you.ca,FALSE,FALSE,0,FALSE,0,FALSE,0,FALSE,0,2539,Parkedale Avenue,Unit F,Brockville,ON,K6V3H2,Canada,N/A,info@cash4you.ca,9:00AM-9:00PM UTC-04:00,9:00AM-9:00PM UTC-04:00,9:00AM-9:00PM UTC-04:00,9:00AM-9:00PM UTC-04:00,9:00AM-9:00PM UTC-04:00,9:00AM-5:00PM UTC-04:00,10:00AM-5:00PM UTC-04:00,To be determined,0
Cash 4 You,(519) 358-1500,cash4you.ca,FALSE,FALSE,0,FALSE,0,FALSE,0,FALSE,0,425,St. Clair Street,Unit 5,Chatham,ON,N7L3K4,Canada,N/A,info@cash4you.ca,9:00AM-9:00PM UTC-04:00,9:00AM-9:00PM UTC-04:00,9:00AM-9:00PM UTC-04:00,9:00AM-9:00PM UTC-04:00,9:00AM-9:00PM UTC-04:00,9:00AM-5:00PM UTC-04:00,10:00AM-5:00PM UTC-04:00,To be determined,0
Cash 4 You,(905) 994-9779,cash4you.ca,FALSE,FALSE,0,FALSE,0,FALSE,0,FALSE,0,401,Garrison Road,Unit C,Fort Erie,ON,L2A1N1,Canada,N/A,info@cash4you.ca,9:00AM-9:00PM UTC-04:00,9:00AM-9:00PM UTC-04:00,9:00AM-9:00PM UTC-04:00,9:00AM-9:00PM UTC-04:00,9:00AM-9:00PM UTC-04:00,9:00AM-5:00PM UTC-04:00,Closed,To be determined,0
Cash 4 You,(905) 525-8000,cash4you.ca,FALSE,FALSE,0,FALSE,0,FALSE,0,FALSE,0,478,King Street East,Unit 2,Hamilton,ON,L8N1C8,Canada,N/A,info@cash4you.ca,9:00AM-9:00PM UTC-04:00,9:00AM-9:00PM UTC-04:00,9:00AM-9:00PM UTC-04:00,9:00AM-9:00PM UTC-04:00,9:00AM-9:00PM UTC-04:00,9:00AM-5:00PM UTC-04:00,10:00AM-5:00PM UTC-04:00,To be determined,0
Cash 4 You,(905) 520-5000,cash4you.ca,FALSE,FALSE,0,FALSE,0,FALSE,0,FALSE,0,77,James Street North,Unit 223,Hamilton,ON,L8R2K3,Canada,N/A,info@cash4you.ca,9:00AM-9:00PM UTC-04:00,9:00AM-9:00PM UTC-04:00,9:00AM-9:00PM UTC-04:00,9:00AM-9:00PM UTC-04:00,9:00AM-9:00PM UTC-04:00,9:00AM-5:00PM UTC-04:00,10:00AM-5:00PM UTC-04:00,To be determined,0
Cash 4 You,(905) 389-4400,cash4you.ca,FALSE,FALSE,0,FALSE,0,FALSE,0,FALSE,0,858,Upper James Street,N/A,Hamilton,ON,L9C3A4,Canada,N/A,info@cash4you.ca,9:00AM-9:00PM UTC-04:00,9:00AM-9:00PM UTC-04:00,9:00AM-9:00PM UTC-04:00,9:00AM-9:00PM UTC-04:00,9:00AM-9:00PM UTC-04:00,9:00AM-5:00PM UTC-04:00,10:00AM-5:00PM UTC-04:00,To be determined,0
Cash 4 You,(905) 549-1919,cash4you.ca,FALSE,FALSE,0,FALSE,0,FALSE,0,FALSE,0,1116,Barton Street East,N/A,Hamilton,ON,L8H2V1,Canada,N/A,info@cash4you.ca,9:00AM-9:00PM UTC-04:00,9:00AM-9:00PM UTC-04:00,9:00AM-9:00PM UTC-04:00,9:00AM-9:00PM UTC-04:00,9:00AM-9:00PM UTC-04:00,9:00AM-5:00PM UTC-04:00,10:00AM-5:00PM UTC-04:00,To be determined,0
Cash 4 You,(905) 561-2274,cash4you.ca,FALSE,FALSE,0,FALSE,0,FALSE,0,FALSE,0,701,Queenston Road,N/A,Hamilton,ON,L8G1A1,Canada,N/A,info@cash4you.ca,9:00AM-9:00PM UTC-04:00,9:00AM-9:00PM UTC-04:00,9:00AM-9:00PM UTC-04:00,9:00AM-9:00PM UTC-04:00,9:00AM-9:00PM UTC-04:00,9:00AM-5:00PM UTC-04:00,10:00AM-5:00PM UTC-04:00,To be determined,0
Cash 4 You,(519) 742-8558,cash4you.ca,FALSE,FALSE,0,FALSE,0,FALSE,0,FALSE,0,1253,King Street East,Unit 5A,Kitchener,ON,N2G2N5,Canada,N/A,info@cash4you.ca,9:00AM-9:00PM UTC-04:00,9:00AM-9:00PM UTC-04:00,9:00AM-9:00PM UTC-04:00,9:00AM-9:00PM UTC-04:00,9:00AM-9:00PM UTC-04:00,9:00AM-5:00PM UTC-04:00,Closed,To be determined,0
Cash 4 You,(519) 894-4222,cash4you.ca,FALSE,FALSE,0,FALSE,0,FALSE,0,FALSE,0,3101,Kingsway Drive,Unit E,Kitchener,ON,N2C2M5,Canada,N/A,info@cash4you.ca,9:00AM-9:00PM UTC-04:00,9:00AM-9:00PM UTC-04:00,9:00AM-9:00PM UTC-04:00,9:00AM-9:00PM UTC-04:00,9:00AM-9:00PM UTC-04:00,9:00AM-5:00PM UTC-04:00,10:00AM-5:00PM UTC-04:00,To be determined,0
Cash 4 You,(519) 568-8434,cash4you.ca,FALSE,FALSE,0,FALSE,0,FALSE,0,FALSE,0,465,Highland Road West,Unit 2,Kitchener,ON,N2M3C6,Canada,N/A,info@cash4you.ca,9:00AM-9:00PM UTC-04:00,9:00AM-9:00PM UTC-04:00,9:00AM-9:00PM UTC-04:00,9:00AM-9:00PM UTC-04:00,9:00AM-9:00PM UTC-04:00,9:00AM-5:00PM UTC-04:00,10:00AM-5:00PM UTC-04:00,To be determined,0
Cash 4 You,(905) 294-1500,cash4you.ca,FALSE,FALSE,0,FALSE,0,FALSE,0,FALSE,0,5703,Highway 7 East,N/A,Markham,ON,L3P1B1,Canada,N/A,info@cash4you.ca,9:00AM-9:00PM UTC-04:00,9:00AM-9:00PM UTC-04:00,9:00AM-9:00PM UTC-04:00,9:00AM-9:00PM UTC-04:00,9:00AM-9:00PM UTC-04:00,9:00AM-5:00PM UTC-04:00,10:00AM-5:00PM UTC-04:00,To be determined,0
Cash 4 You,(905) 853-1300,cash4you.ca,FALSE,FALSE,0,FALSE,0,FALSE,0,FALSE,0,93,Davis Drive,N/A,Newmarket,ON,L3P1B1,Canada,N/A,info@cash4you.ca,9:00AM-9:00PM UTC-04:00,9:00AM-9:00PM UTC-04:00,9:00AM-9:00PM UTC-04:00,9:00AM-9:00PM UTC-04:00,9:00AM-9:00PM UTC-04:00,9:00AM-5:00PM UTC-04:00,10:00AM-5:00PM UTC-04:00,To be determined,0
Cash 4 You,(416) 663-2444,cash4you.ca,FALSE,FALSE,0,FALSE,0,FALSE,0,FALSE,0,1101,Finch Avenue West,Unit 7,North York,ON,M3J2C9,Canada,N/A,info@cash4you.ca,9:00AM-9:00PM UTC-04:00,9:00AM-9:00PM UTC-04:00,9:00AM-9:00PM UTC-04:00,9:00AM-9:00PM UTC-04:00,9:00AM-9:00PM UTC-04:00,9:00AM-5:00PM UTC-04:00,10:00AM-5:00PM UTC-04:00,To be determined,0
Cash 4 You,(416) 246-9998,cash4you.ca,FALSE,FALSE,0,FALSE,0,FALSE,0,FALSE,0,1542,Jane Street,Unit 2,North York,ON,M9N2R5,Canada,N/A,info@cash4you.ca,9:00AM-9:00PM UTC-04:00,9:00AM-9:00PM UTC-04:00,9:00AM-9:00PM UTC-04:00,9:00AM-9:00PM UTC-04:00,9:00AM-9:00PM UTC-04:00,9:00AM-5:00PM UTC-04:00,10:00AM-5:00PM UTC-04:00,To be determined,0
Cash 4 You,(705) 327-2979,cash4you.ca,FALSE,FALSE,0,FALSE,0,FALSE,0,FALSE,0,180,Mississauga Street East,N/A,Orillia,ON,L3V2J8,Canada,N/A,info@cash4you.ca,9:00AM-9:00PM UTC-04:00,9:00AM-9:00PM UTC-04:00,9:00AM-9:00PM UTC-04:00,9:00AM-9:00PM UTC-04:00,9:00AM-9:00PM UTC-04:00,9:00AM-5:00PM UTC-04:00,Closed,To be determined,0
Cash 4 You,(613) 730-2274,cash4you.ca,FALSE,FALSE,0,FALSE,0,FALSE,0,FALSE,0,1400,Bank Street,N/A,Ottawa,ON,K1H7Y9,Canada,N/A,info@cash4you.ca,9:00AM-9:00PM UTC-04:00,9:00AM-9:00PM UTC-04:00,9:00AM-9:00PM UTC-04:00,9:00AM-9:00PM UTC-04:00,9:00AM-9:00PM UTC-04:00,9:00AM-5:00PM UTC-04:00,10:00AM-5:00PM UTC-04:00,To be determined,0
Cash 4 You,(613) 820-2274,cash4you.ca,FALSE,FALSE,0,FALSE,0,FALSE,0,FALSE,0,1355,Richmond Road,N/A,Ottawa,ON,K2B6R7,Canada,N/A,info@cash4you.ca,9:00AM-9:00PM UTC-04:00,9:00AM-9:00PM UTC-04:00,9:00AM-9:00PM UTC-04:00,9:00AM-9:00PM UTC-04:00,9:00AM-9:00PM UTC-04:00,9:00AM-5:00PM UTC-04:00,10:00AM-5:00PM UTC-04:00,To be determined,0
Cash 4 You,(613) 746-6446,cash4you.ca,FALSE,FALSE,0,FALSE,0,FALSE,0,FALSE,0,1020,St. Laurent Blvd,N/A,Ottawa,ON,K1K4S2,Canada,N/A,info@cash4you.ca,9:00AM-9:00PM UTC-04:00,9:00AM-9:00PM UTC-04:00,9:00AM-9:00PM UTC-04:00,9:00AM-9:00PM UTC-04:00,9:00AM-9:00PM UTC-04:00,9:00AM-5:00PM UTC-04:00,10:00AM-5:00PM UTC-04:00,To be determined,0
Cash 4 You,(613) 224-9785,cash4you.ca,FALSE,FALSE,0,FALSE,0,FALSE,0,FALSE,0,1600,Merivale Road,N/A,Ottawa,ON,K2G5J8,Canada,N/A,info@cash4you.ca,9:00AM-9:00PM UTC-04:00,9:00AM-9:00PM UTC-04:00,9:00AM-9:00PM UTC-04:00,9:00AM-9:00PM UTC-04:00,9:00AM-9:00PM UTC-04:00,9:00AM-5:00PM UTC-04:00,10:00AM-5:00PM UTC-04:00,To be determined,0
Cash 4 You,(613) 234-6113,cash4you.ca,FALSE,FALSE,0,FALSE,0,FALSE,0,FALSE,0,386,Bank Street,Unit A,Ottawa,ON,K2P1Y4,Canada,N/A,info@cash4you.ca,9:00AM-9:00PM UTC-04:00,9:00AM-9:00PM UTC-04:00,9:00AM-9:00PM UTC-04:00,9:00AM-9:00PM UTC-04:00,9:00AM-9:00PM UTC-04:00,9:00AM-5:00PM UTC-04:00,Closed,To be determined,0
Cash 4 You,(613) 860-4000,cash4you.ca,FALSE,FALSE,0,FALSE,0,FALSE,0,FALSE,0,379,Dalhousie Street,N/A,Ottawa,ON,K1N9L3,Canada,N/A,info@cash4you.ca,9:00AM-9:00PM UTC-04:00,9:00AM-9:00PM UTC-04:00,9:00AM-9:00PM UTC-04:00,9:00AM-9:00PM UTC-04:00,9:00AM-9:00PM UTC-04:00,9:00AM-5:00PM UTC-04:00,Closed,To be determined,0
Cash 4 You,(705) 741-4747,cash4you.ca,FALSE,FALSE,0,FALSE,0,FALSE,0,FALSE,0,824,Lansdowne Street West,N/A,Peterborough,ON,K9J1Z4,Canada,N/A,info@cash4you.ca,9:00AM-9:00PM UTC-04:00,9:00AM-9:00PM UTC-04:00,9:00AM-9:00PM UTC-04:00,9:00AM-9:00PM UTC-04:00,9:00AM-9:00PM UTC-04:00,9:00AM-5:00PM UTC-04:00,10:00AM-5:00PM UTC-04:00,To be determined,0
Cash 4 You,(705) 743-6161,cash4you.ca,FALSE,FALSE,0,FALSE,0,FALSE,0,FALSE,0,351,George Street North,Unit B,Peterborough,ON,K9H3P9,Canada,N/A,info@cash4you.ca,9:00AM-9:00PM UTC-04:00,9:00AM-9:00PM UTC-04:00,9:00AM-9:00PM UTC-04:00,9:00AM-9:00PM UTC-04:00,9:00AM-9:00PM UTC-04:00,9:00AM-5:00PM UTC-04:00,Closed,To be determined,0
Cash 4 You,(705) 253-7700,cash4you.ca,FALSE,FALSE,0,FALSE,0,FALSE,0,FALSE,0,154,Great Northern Road,Unit 6,Sault Ste. Marie,ON,P6B4Z1,Canada,N/A,info@cash4you.ca,9:00AM-9:00PM UTC-04:00,9:00AM-9:00PM UTC-04:00,9:00AM-9:00PM UTC-04:00,9:00AM-9:00PM UTC-04:00,9:00AM-9:00PM UTC-04:00,9:00AM-5:00PM UTC-04:00,10:00AM-5:00PM UTC-04:00,To be determined,0
Cash 4 You,(519) 637-7261,cash4you.ca,FALSE,FALSE,0,FALSE,0,FALSE,0,FALSE,0,877,Talbot Street,Unit 4,St. Thomas,ON,N5P1E5,Canada,N/A,info@cash4you.ca,9:00AM-9:00PM UTC-04:00,9:00AM-9:00PM UTC-04:00,9:00AM-9:00PM UTC-04:00,9:00AM-9:00PM UTC-04:00,9:00AM-9:00PM UTC-04:00,9:00AM-5:00PM UTC-04:00,Closed,To be determined,0
Cash 4 You,(807) 286-6828,cash4you.ca,FALSE,FALSE,0,FALSE,0,FALSE,0,FALSE,0,277,Red River Road,N/A,Thunder Bay,ON,P7B1A9,Canada,N/A,info@cash4you.ca,9:00AM-9:00PM UTC-04:00,9:00AM-9:00PM UTC-04:00,9:00AM-9:00PM UTC-04:00,9:00AM-9:00PM UTC-04:00,9:00AM-9:00PM UTC-04:00,9:00AM-5:00PM UTC-04:00,Closed,To be determined,0
Cash 4 You,(807) 286-5371,cash4you.ca,FALSE,FALSE,0,FALSE,0,FALSE,0,FALSE,0,947,Memorial Avenue,Unit A,Thunder Bay,ON,P7B4A1,Canada,N/A,info@cash4you.ca,9:00AM-9:00PM UTC-04:00,9:00AM-9:00PM UTC-04:00,9:00AM-9:00PM UTC-04:00,9:00AM-9:00PM UTC-04:00,9:00AM-9:00PM UTC-04:00,9:00AM-5:00PM UTC-04:00,10:00AM-5:00PM UTC-04:00,To be determined,0
Cash 4 You,(613) 965-0990,cash4you.ca,FALSE,FALSE,0,FALSE,0,FALSE,0,FALSE,0,257,Dundas Street East,N/A,Trenton,ON,K8V1M1,Canada,N/A,info@cash4you.ca,9:00AM-9:00PM UTC-04:00,9:00AM-9:00PM UTC-04:00,9:00AM-9:00PM UTC-04:00,9:00AM-9:00PM UTC-04:00,9:00AM-9:00PM UTC-04:00,9:00AM-5:00PM UTC-04:00,Closed,To be determined,0
Cash 4 You,(519) 256-2834,cash4you.ca,FALSE,FALSE,0,FALSE,0,FALSE,0,FALSE,0,597,Wyandotte Street East,N/A,Windsor,ON,N9A3J1,Canada,N/A,info@cash4you.ca,9:00AM-9:00PM UTC-04:00,9:00AM-9:00PM UTC-04:00,9:00AM-9:00PM UTC-04:00,9:00AM-9:00PM UTC-04:00,9:00AM-9:00PM UTC-04:00,9:00AM-5:00PM UTC-04:00,Closed,To be determined,0
Cash 4 You,(519) 250-1500,cash4you.ca,FALSE,FALSE,0,FALSE,0,FALSE,0,FALSE,0,2726,Howard Avenue,N/A,Windsor,ON,N8X3X5,Canada,N/A,info@cash4you.ca,9:00AM-9:00PM UTC-04:00,9:00AM-9:00PM UTC-04:00,9:00AM-9:00PM UTC-04:00,9:00AM-9:00PM UTC-04:00,9:00AM-9:00PM UTC-04:00,9:00AM-5:00PM UTC-04:00,10:00AM-5:00PM UTC-04:00,To be determined,0
Cash 4 You,(519) 945-9000,cash4you.ca,FALSE,FALSE,0,FALSE,0,FALSE,0,FALSE,0,7755,Tecumseh Road East,Unit 104,Windsor,ON,N8T1G3,Canada,N/A,info@cash4you.ca,9:00AM-9:00PM UTC-04:00,9:00AM-9:00PM UTC-04:00,9:00AM-9:00PM UTC-04:00,9:00AM-9:00PM UTC-04:00,9:00AM-9:00PM UTC-04:00,9:00AM-5:00PM UTC-04:00,10:00AM-5:00PM UTC-04:00,To be determined,0
Cash 4 You,(519) 253-3200,cash4you.ca,FALSE,FALSE,0,FALSE,0,FALSE,0,FALSE,0,2385,Tecumseh Road West,Unit 3,Windsor,ON,N9B1W2,Canada,N/A,info@cash4you.ca,9:00AM-9:00PM UTC-04:00,9:00AM-9:00PM UTC-04:00,9:00AM-9:00PM UTC-04:00,9:00AM-9:00PM UTC-04:00,9:00AM-9:00PM UTC-04:00,9:00AM-5:00PM UTC-04:00,Closed,To be determined,0
